NORAD_CAT_ID,OBJECT_NAME,OBJECT_TYPE,EPOCH,MEAN_MOTION,ECCENTRICITY,INCLINATION,RA_OF_ASC_NODE,ARG_OF_PERICENTER,MEAN_ANOMALY,BSTAR,MEAN_MOTION_DOT,MEAN_MOTION_DDOT,TLE_LINE0,TLE_LINE1,TLE_LINE2,SEMIMAJOR_AXIS,PERIOD,APOGEE,PERIGEE,DECAYED
54101.0,STARLINK-5204,PAYLOAD,2024-01-13 01:25:46,15.08840482,0.0001347,53.2161,250.2004,93.2818,266.8328,-1.2015e-05,-4.79e-06,0.0,0 STARLINK-5204,1 54101U 22136BC  24013.05956554 -.00000479  00000-0 -12015-4 0  9999,2 54101  53.2161 250.2004 0001347  93.2818 266.8328 15.08840482 68447,6917.879,95.438,540.676,538.812,0.0
54101.0,STARLINK-5204,PAYLOAD,2024-01-13 18:55:00,15.088407,0.0001469,53.2163,246.9296,103.0235,257.0922,3.8617e-05,3.27e-06,0.0,0 STARLINK-5204,1 54101U 22136BC  24013.78820560  .00000327  00000-0  38617-4 0  9992,2 54101  53.2163 246.9296 0001469 103.0235 257.0922 15.08840700 69022,6917.878,95.438,540.759,538.727,0.0
54101.0,STARLINK-5204,PAYLOAD,2024-01-13 22:05:46,15.08850201,0.0001724,53.2161,246.3348,107.6203,252.4977,-5.7917e-05,-1.21e-05,0.0,0 STARLINK-5204,1 54101U 22136BC  24013.92068173 -.00001210  00000-0 -57917-4 0  9990,2 54101  53.2161 246.3348 0001724 107.6203 252.4977 15.08850201 69049,6917.849,95.437,540.907,538.522,0.0
54101.0,STARLINK-5204,PAYLOAD,2024-01-14 18:45:47,15.08839984,0.0001434,53.2162,242.4688,102.3009,257.8144,0.00010441,1.374e-05,0.0,0 STARLINK-5204,1 54101U 22136BC  24014.78180510  .00001374  00000-0  10441-3 0  9994,2 54101  53.2162 242.4688 0001434 102.3009 257.8144 15.08839984 69172,6917.88,95.438,540.737,538.753,0.0
54101.0,STARLINK-5204,PAYLOAD,2024-01-14 20:21:11,15.08840057,0.000142,53.2164,242.1712,103.8386,256.2764,0.00010081,1.317e-05,0.0,0 STARLINK-5204,1 54101U 22136BC  24014.84804521  .00001317  00000-0  10081-3 0  9993,2 54101  53.2164 242.1712 0001420 103.8386 256.2764 15.08840057 68711,6917.88,95.438,540.728,538.763,0.0
54101.0,STARLINK-5204,PAYLOAD,2024-01-15 20:11:58,15.0884215,0.00014,53.2161,237.7106,111.1581,248.956,3.6644e-05,2.95e-06,0.0,0 STARLINK-5204,1 54101U 22136BC  24015.84164516  .00000295  00000-0  36644-4 0  9995,2 54101  53.2161 237.7106 0001400 111.1581 248.9560 15.08842150 68866,6917.874,95.437,540.707,538.77,0.0
54101.0,STARLINK-5204,PAYLOAD,2024-01-16 20:02:45,15.08835528,0.0001183,53.2161,233.2559,97.2659,262.8468,1.4952e-05,-5e-07,0.0,0 STARLINK-5204,1 54101U 22136BC  24016.83525208 -.00000050  00000-0  14952-4 0  9992,2 54101  53.2161 233.2559 0001183  97.2659 262.8468 15.08835528 69489,6917.894,95.438,540.577,538.941,0.0
54101.0,STARLINK-5204,PAYLOAD,2024-01-16 21:38:08,15.08835901,0.0001213,53.2163,232.9591,99.6101,260.5028,1.6407e-05,-2.7e-07,0.0,0 STARLINK-5204,1 54101U 22136BC  24016.90149177 -.00000027  00000-0  16407-4 0  9998,2 54101  53.2163 232.9591 0001213  99.6101 260.5028 15.08835901 69027,6917.893,95.438,540.597,538.919,0.0
54101.0,STARLINK-5204,PAYLOAD,2024-01-17 00:48:55,15.08837068,0.0001169,53.216,232.3604,89.4503,270.6623,2.0966e-05,4.6e-07,0.0,0 STARLINK-5204,1 54101U 22136BC  24017.03397101  .00000046  00000-0  20966-4 0  9990,2 54101  53.2160 232.3604 0001169  89.4503 270.6623 15.08837068 69047,6917.889,95.438,540.563,538.946,0.0
54101.0,STARLINK-5204,PAYLOAD,2024-01-17 21:28:56,15.08836132,0.0001209,53.2161,228.4939,85.5477,274.5654,3.985e-05,3.46e-06,0.0,0 STARLINK-5204,1 54101U 22136BC  24017.89509411  .00000346  00000-0  39850-4 0  9998,2 54101  53.2161 228.4939 0001209  85.5477 274.5654 15.08836132 69179,6917.892,95.438,540.594,538.921,0.0
54101.0,STARLINK-5204,PAYLOAD,2024-01-18 13:22:47,15.08836163,0.0001237,53.2161,225.5201,82.1775,277.9358,6.552e-05,7.55e-06,0.0,0 STARLINK-5204,1 54101U 22136BC  24018.55749560  .00000755  00000-0  65520-4 0  9990,2 54101  53.2161 225.5201 0001237  82.1775 277.9358 15.08836163 69277,6917.892,95.438,540.613,538.901,0.0
54101.0,STARLINK-5204,PAYLOAD,2024-01-18 21:19:43,15.0883966,0.0001229,53.216,224.0333,83.5089,276.6043,8.8759e-05,1.125e-05,0.0,0 STARLINK-5204,1 54101U 22136BC  24018.88869314  .00001125  00000-0  88759-4 0  9997,2 54101  53.2160 224.0333 0001229  83.5089 276.6043 15.08839660 69328,6917.881,95.438,540.597,538.896,0.0
54101.0,STARLINK-5204,PAYLOAD,2024-01-18 22:55:06,15.08840848,0.0001238,53.216,223.7359,82.7511,277.3622,9.9233e-05,1.292e-05,0.0,0 STARLINK-5204,1 54101U 22136BC  24018.95493221  .00001292  00000-0  99233-4 0  9999,2 54101  53.2160 223.7359 0001238  82.7511 277.3622 15.08840848 69807,6917.878,95.438,540.599,538.886,0.0
54101.0,STARLINK-5204,PAYLOAD,2024-01-19 22:45:52,15.088477,0.0001231,53.2159,219.2749,87.9427,272.1706,0.00011634,1.565e-05,0.0,0 STARLINK-5204,1 54101U 22136BC  24019.94852604  .00001565  00000-0  11634-3 0  9994,2 54101  53.2159 219.2749 0001231  87.9427 272.1706 15.08847700 69488,6917.857,95.437,540.573,538.87,0.0
54101.0,STARLINK-5204,PAYLOAD,2024-01-20 19:25:54,15.08838775,0.0001374,53.2162,215.4079,81.479,278.6358,-1.5236e-05,-5.3e-06,0.0,0 STARLINK-5204,1 54101U 22136BC  24020.80965601 -.00000530  00000-0 -15236-4 0  9999,2 54101  53.2162 215.4079 0001374  81.4790 278.6358 15.08838775 70080,6917.884,95.438,540.7,538.799,0.0
54101.0,STARLINK-5204,PAYLOAD,2024-01-20 22:36:40,15.08838309,0.0001375,53.2162,214.8133,81.5757,278.5391,-1.9249e-05,-5.94e-06,0.0,0 STARLINK-5204,1 54101U 22136BC  24020.94213624 -.00000594  00000-0 -19249-4 0  9993,2 54101  53.2162 214.8133 0001375  81.5757 278.5391 15.08838309 69637,6917.886,95.438,540.702,538.799,0.0
54101.0,STARLINK-5204,PAYLOAD,2024-01-21 12:55:08,15.08842952,0.0001569,53.2175,212.1363,107.9519,252.1645,3.0913e-05,2.04e-06,0.0,0 STARLINK-5204,1 54101U 22136BC  24021.53828993  .00000204  00000-0  30913-4 0  9997,2 54101  53.2175 212.1363 0001569 107.9519 252.1645 15.08842952 70193,6917.871,95.437,540.822,538.651,0.0
54101.0,STARLINK-5204,PAYLOAD,2024-01-21 17:41:17,15.08845429,0.0001591,53.2173,211.2447,110.151,249.9653,5.0685e-05,5.19e-06,0.0,0 STARLINK-5204,1 54101U 22136BC  24021.73700713  .00000519  00000-0  50685-4 0  9995,2 54101  53.2173 211.2447 0001591 110.1510 249.9653 15.08845429 69751,6917.864,95.437,540.829,538.628,0.0
54101.0,STARLINK-5204,PAYLOAD,2024-01-22 17:32:04,15.08838446,0.0001393,53.2174,206.788,93.6127,266.5024,4.7892e-05,4.74e-06,0.0,0 STARLINK-5204,1 54101U 22136BC  24022.73061293  .00000474  00000-0  47892-4 0  9995,2 54101  53.2174 206.7880 0001393  93.6127 266.5024 15.08838446 70379,6917.885,95.438,540.714,538.786,0.0
54101.0,STARLINK-5204,PAYLOAD,2024-01-23 03:04:24,15.08833065,0.0001337,53.2156,205.0017,82.3826,277.7318,2.0395e-06,-2.55e-06,0.0,0 STARLINK-5204,1 54101U 22136BC  24023.12805716 -.00000255  00000-0  20395-5 0  9993,2 54101  53.2156 205.0017 0001337  82.3826 277.7318 15.08833065 69967,6917.902,95.438,540.692,538.842,0.0
54101.0,STARLINK-5204,PAYLOAD,2024-01-23 20:33:38,15.08841094,0.0001289,53.2162,201.7298,90.5496,269.5643,1.8625e-05,9e-08,0.0,0 STARLINK-5204,1 54101U 22136BC  24023.85669270  .00000009  00000-0  18625-4 0  9994,2 54101  53.2162 201.7298 0001289  90.5496 269.5643 15.08841094 70073,6917.877,95.437,540.634,538.85,0.0
54101.0,STARLINK-5204,PAYLOAD,2024-01-24 02:55:11,15.08827566,0.0001403,53.2161,200.5403,85.5623,274.5529,-6.587e-05,-1.336e-05,0.0,0 STARLINK-5204,1 54101U 22136BC  24024.12166426 -.00001336  00000-0 -65870-4 0  9990,2 54101  53.2161 200.5403 0001403  85.5623 274.5529 15.08827566 70584,6917.918,95.438,540.754,538.813,0.0
54101.0,STARLINK-5204,PAYLOAD,2024-01-24 14:02:53,15.08831455,0.0001384,53.2154,198.4587,93.8307,266.2844,-2.4783e-05,-6.82e-06,0.0,0 STARLINK-5204,1 54101U 22136BC  24024.58534373 -.00000682  00000-0 -24783-4 0  9991,2 54101  53.2154 198.4587 0001384  93.8307 266.2844 15.08831455 70189,6917.907,95.438,540.729,538.814,0.0
54101.0,STARLINK-5204,PAYLOAD,2024-01-24 18:49:03,15.08833971,0.0001288,53.2159,197.5669,91.1141,268.9999,-1.0536e-05,-4.56e-06,0.0,0 STARLINK-5204,1 54101U 22136BC  24024.78406281 -.00000456  00000-0 -10536-4 0  9999,2 54101  53.2159 197.5669 0001288  91.1141 268.9999 15.08833971 70685,6917.899,95.438,540.655,538.873,0.0
54101.0,STARLINK-5204,PAYLOAD,2024-01-24 21:59:49,15.08836777,0.0001291,53.216,196.9721,92.1512,267.9628,1.3425e-05,-7.4e-07,0.0,0 STARLINK-5204,1 54101U 22136BC  24024.91654055 -.00000074  00000-0  13425-4 0  9993,2 54101  53.2160 196.9721 0001291  92.1512 267.9628 15.08836777 70232,6917.89,95.438,540.648,538.862,0.0
54101.0,STARLINK-5204,PAYLOAD,2024-01-25 18:39:49,15.08843511,0.0001229,53.2163,193.1066,91.0695,269.0438,0.00010272,1.347e-05,0.0,0 STARLINK-5204,1 54101U 22136BC  24025.77765572  .00001347  00000-0  10272-3 0  9994,2 54101  53.2163 193.1066 0001229  91.0695 269.0438 15.08843511 70839,6917.87,95.437,540.585,538.884,0.0
54101.0,STARLINK-5204,PAYLOAD,2024-01-26 18:30:36,15.08843294,0.0001208,53.2162,188.6463,91.6729,268.4401,0.00014562,2.031e-05,0.0,0 STARLINK-5204,1 54101U 22136BC  24026.77125578  .00002031  00000-0  14562-3 0  9998,2 54101  53.2162 188.6463 0001208  91.6729 268.4401 15.08843294 70515,6917.87,95.437,540.571,538.9,0.0
54101.0,STARLINK-5204,PAYLOAD,2024-01-27 19:56:46,15.08846423,0.0001471,53.2171,183.8864,74.4803,285.6352,2.8156e-05,1.6e-06,0.0,0 STARLINK-5204,1 54101U 22136BC  24027.83109676  .00000160  00000-0  28156-4 0  9993,2 54101  53.2171 183.8864 0001471  74.4803 285.6352 15.08846423 70671,6917.861,95.437,540.743,538.708,0.0
54101.0,STARLINK-5204,PAYLOAD,2024-01-28 10:15:15,15.08838318,0.0001669,53.2176,181.2094,74.9165,285.2012,5.9455e-06,-1.93e-06,0.0,0 STARLINK-5204,1 54101U 22136BC  24028.42726201 -.00000193  00000-0  59455-5 0  9992,2 54101  53.2176 181.2094 0001669  74.9165 285.2012 15.08838318 71234,6917.886,95.438,540.905,538.596,0.0
54101.0,STARLINK-5204,PAYLOAD,2024-01-28 13:26:01,15.08839598,0.0001461,53.2163,180.6167,88.768,271.348,1.7713e-05,-6e-08,0.0,0 STARLINK-5204,1 54101U 22136BC  24028.55973959 -.00000006  00000-0  17713-4 0  9993,2 54101  53.2163 180.6167 0001461  88.7680 271.3480 15.08839598 70784,6917.882,95.438,540.757,538.736,0.0
